{
  "type": "FeatureCollection",
  "features": [
    {
      "type": "Feature",
      "properties": {
        "norad_id": 55973,
        "name": "TIANMU-1 03",
        "group": "weather",
        "lat": -21.16230459818152,
        "lon": 160.4094843811798,
        "alt_km": 446.73514968223117,
        "timestamp": "2025-12-20T14:38:01.600900+00:00",
        "meta_object_name": "TIANMU-1 03",
        "meta_object_id": "2023-039A",
        "meta_epoch": "2025-12-20T06:56:04.753824",
        "meta_mean_motion": 15.4113043,
        "meta_eccentricity": 0.00040769,
        "meta_inclination": 97.5104,
        "meta_ra_of_asc_node": 157.1522,
        "meta_arg_of_pericenter": 39.4369,
        "meta_mean_anomaly": 320.7173,
        "meta_ephemeris_type": 0,
        "meta_classification_type": "U",
        "meta_norad_cat_id": 55973,
        "meta_element_set_no": 999,
        "meta_rev_at_epoch": 15322,
        "meta_bstar": 0.00027215082,
        "meta_mean_motion_dot": 0.00011188,
        "meta_mean_motion_ddot": 0,
        "tle_line1": "1 55973U 23039A   25354.28894391  .00011188  00000+0  27215-3 0  9997",
        "tle_line2": "2 55973  97.5104 157.1522 0004076  39.4369 320.7173 15.41130430153229"
      },
      "geometry": {
        "type": "Point",
        "coordinates": [
          160.4094843811798,
          -21.16230459818152
        ]
      }
    },
    {
      "type": "Feature",
      "properties": {
        "norad_id": 55974,
        "name": "TIANMU-1 04",
        "group": "weather",
        "lat": 75.50253793756399,
        "lon": 7.317913364496607,
        "alt_km": 433.50215521950486,
        "timestamp": "2025-12-20T14:38:01.600910+00:00",
        "meta_object_name": "TIANMU-1 04",
        "meta_object_id": "2023-039B",
        "meta_epoch": "2025-12-20T06:24:05.904000",
        "meta_mean_motion": 15.41470548,
        "meta_eccentricity": 0.00046853,
        "meta_inclination": 97.5036,
        "meta_ra_of_asc_node": 156.3173,
        "meta_arg_of_pericenter": 33.6742,
        "meta_mean_anomaly": 326.4801,
        "meta_ephemeris_type": 0,
        "meta_classification_type": "U",
        "meta_norad_cat_id": 55974,
        "meta_element_set_no": 999,
        "meta_rev_at_epoch": 15322,
        "meta_bstar": 0.00026868706,
        "meta_mean_motion_dot": 0.00011171,
        "meta_mean_motion_ddot": 0,
        "tle_line1": "1 55974U 23039B   25354.26673500  .00011171  00000+0  26869-3 0  9999",
        "tle_line2": "2 55974  97.5036 156.3173 0004685  33.6742 326.4801 15.41470548153222"
      },
      "geometry": {
        "type": "Point",
        "coordinates": [
          7.317913364496607,
          75.50253793756399
        ]
      }
    },
    {
      "type": "Feature",
      "properties": {
        "norad_id": 55975,
        "name": "TIANMU-1 05",
        "group": "weather",
        "lat": 55.69498993518401,
        "lon": -11.69154198619565,
        "alt_km": 436.50621859386774,
        "timestamp": "2025-12-20T14:38:01.600921+00:00",
        "meta_object_name": "TIANMU-1 05",
        "meta_object_id": "2023-039C",
        "meta_epoch": "2025-12-20T06:18:29.852064",
        "meta_mean_motion": 15.41086854,
        "meta_eccentricity": 0.0004128,
        "meta_inclination": 97.5082,
        "meta_ra_of_asc_node": 156.806,
        "meta_arg_of_pericenter": 57.9177,
        "meta_mean_anomaly": 302.2469,
        "meta_ephemeris_type": 0,
        "meta_classification_type": "U",
        "meta_norad_cat_id": 55975,
        "meta_element_set_no": 999,
        "meta_rev_at_epoch": 15320,
        "meta_bstar": 0.0002675494,
        "meta_mean_motion_dot": 0.00010981,
        "meta_mean_motion_ddot": 0,
        "tle_line1": "1 55975U 23039C   25354.26284551  .00010981  00000+0  26755-3 0  9996",
        "tle_line2": "2 55975  97.5082 156.8060 0004128  57.9177 302.2469 15.41086854153200"
      },
      "geometry": {
        "type": "Point",
        "coordinates": [
          -11.69154198619565,
          55.69498993518401
        ]
      }
    },
    {
      "type": "Feature",
      "properties": {
        "norad_id": 55976,
        "name": "TIANMU-1 06",
        "group": "weather",
        "lat": 82.27130276363927,
        "lon": 54.03640243656895,
        "alt_km": 431.8440878516294,
        "timestamp": "2025-12-20T14:38:01.600933+00:00",
        "meta_object_name": "TIANMU-1 06",
        "meta_object_id": "2023-039D",
        "meta_epoch": "2025-12-20T06:26:52.006272",
        "meta_mean_motion": 15.41522258,
        "meta_eccentricity": 0.00044291,
        "meta_inclination": 97.5093,
        "meta_ra_of_asc_node": 157.2833,
        "meta_arg_of_pericenter": 52.204,
        "meta_mean_anomaly": 307.9607,
        "meta_ephemeris_type": 0,
        "meta_classification_type": "U",
        "meta_norad_cat_id": 55976,
        "meta_element_set_no": 999,
        "meta_rev_at_epoch": 15322,
        "meta_bstar": 0.00026858508,
        "meta_mean_motion_dot": 0.00011186,
        "meta_mean_motion_ddot": 0,
        "tle_line1": "1 55976U 23039D   25354.26865748  .00011186  00000+0  26859-3 0  9993",
        "tle_line2": "2 55976  97.5093 157.2833 0004429  52.2040 307.9607 15.41522258153228"
      },
      "geometry": {
        "type": "Point",
        "coordinates": [
          54.03640243656895,
          82.27130276363927
        ]
      }
    },
    {
      "type": "Feature",
      "properties": {
        "norad_id": 56232,
        "name": "FENGYUN 3G",
        "group": "weather",
        "lat": -33.2753084591225,
        "lon": 40.27825450048677,
        "alt_km": 403.7690454686672,
        "timestamp": "2025-12-20T14:38:01.600944+00:00",
        "meta_object_name": "FENGYUN 3G",
        "meta_object_id": "2023-055A",
        "meta_epoch": "2025-12-20T05:57:04.639104",
        "meta_mean_motion": 15.54066835,
        "meta_eccentricity": 0.00093557,
        "meta_inclination": 49.9917,
        "meta_ra_of_asc_node": 188.6963,
        "meta_arg_of_pericenter": 182.4331,
        "meta_mean_anomaly": 177.6593,
        "meta_ephemeris_type": 0,
        "meta_classification_type": "U",
        "meta_norad_cat_id": 56232,
        "meta_element_set_no": 999,
        "meta_rev_at_epoch": 15219,
        "meta_bstar": 0.0003365707,
        "meta_mean_motion_dot": 0.00021883,
        "meta_mean_motion_ddot": 0,
        "tle_line1": "1 56232U 23055A   25354.24797036  .00021883  00000+0  33657-3 0  9998",
        "tle_line2": "2 56232  49.9917 188.6963 0009355 182.4331 177.6593 15.54066835152193"
      },
      "geometry": {
        "type": "Point",
        "coordinates": [
          40.27825450048677,
          -33.2753084591225
        ]
      }
    },
    {
      "type": "Feature",
      "properties": {
        "norad_id": 57166,
        "name": "METEOR-M2 3",
        "group": "weather",
        "lat": -68.21653652080477,
        "lon": -154.3419693378644,
        "alt_km": 819.2378365151772,
        "timestamp": "2025-12-20T14:38:01.600955+00:00",
        "meta_object_name": "METEOR-M2 3",
        "meta_object_id": "2023-091A",
        "meta_epoch": "2025-12-20T06:43:05.972736",
        "meta_mean_motion": 14.24026932,
        "meta_eccentricity": 0.00034821,
        "meta_inclination": 98.6367,
        "meta_ra_of_asc_node": 47.6873,
        "meta_arg_of_pericenter": 346.2714,
        "meta_mean_anomaly": 13.8369,
        "meta_ephemeris_type": 0,
        "meta_classification_type": "U",
        "meta_norad_cat_id": 57166,
        "meta_element_set_no": 999,
        "meta_rev_at_epoch": 12905,
        "meta_bstar": 2.137188e-05,
        "meta_mean_motion_dot": 6e-08,
        "meta_mean_motion_ddot": 0,
        "tle_line1": "1 57166U 23091A   25354.27993024  .00000006  00000+0  21372-4 0  9999",
        "tle_line2": "2 57166  98.6367  47.6873 0003482 346.2714  13.8369 14.24026932129055"
      },
      "geometry": {
        "type": "Point",
        "coordinates": [
          -154.3419693378644,
          -68.21653652080477
        ]
      }
    },
    {
      "type": "Feature",
      "properties": {
        "norad_id": 57399,
        "name": "TIANMU-1 07",
        "group": "weather",
        "lat": 38.16381425649961,
        "lon": -129.94219073504738,
        "alt_km": 477.9064854707676,
        "timestamp": "2025-12-20T14:38:01.600965+00:00",
        "meta_object_name": "TIANMU-1 07",
        "meta_object_id": "2023-101A",
        "meta_epoch": "2025-12-20T06:09:36.261216",
        "meta_mean_motion": 15.28171326,
        "meta_eccentricity": 0.00053071,
        "meta_inclination": 97.2867,
        "meta_ra_of_asc_node": 43.941,
        "meta_arg_of_pericenter": 62.4168,
        "meta_mean_anomaly": 297.7611,
        "meta_ephemeris_type": 0,
        "meta_classification_type": "U",
        "meta_norad_cat_id": 57399,
        "meta_element_set_no": 999,
        "meta_rev_at_epoch": 13430,
        "meta_bstar": 0.00018034193,
        "meta_mean_motion_dot": 4.88e-05,
        "meta_mean_motion_ddot": 0,
        "tle_line1": "1 57399U 23101A   25354.25666969  .00004880  00000+0  18034-3 0  9996",
        "tle_line2": "2 57399  97.2867  43.9410 0005307  62.4168 297.7611 15.28171326134307"
      },
      "geometry": {
        "type": "Point",
        "coordinates": [
          -129.94219073504738,
          38.16381425649961
        ]
      }
    }
  ]
}